{
"type": "FeatureCollection",
"name": "camaras_salvavidas_clean",
"crs": { "type": "name", "properties": { "name": "urn:ogc:def:crs:OGC:1.3:CRS84" } },
"features": [
{ "type": "Feature", "properties": { "id_registro": 1, "objectid_fuente": 1, "id_camara": "DEI-001/CAM-01", "nombre_camara": "AV 1 DE MAYO - AV BOYACA (N-S) C. RAP", "direccion": "AV BOYACÁ - CL 35 SUR (N-S)", "numero_acto": "MT-20194000619861 Diciembre 13 de 2019", "velocidad_maxima": 50, "corredor_principal": "Av. Boyacá", "via_secundaria": "Av. Primero de Mayo", "sentido": "(Norte - Sur)", "calzada": "Rápida", "carriles": 2, "localidad": "Kennedy", "infraccion": "C.29 - C.14 - C.35 - D.02", "longitud": -74.140266999844187, "latitud": 4.6156640002188274, "longitud_fuente": -74.140267, "latitud_fuente": 4.615664 }, "geometry": { "type": "Point", "coordinates": [ -74.140266999844187, 4.615664000218827 ] } },
{ "type": "Feature", "properties": { "id_registro": 2, "objectid_fuente": 2, "id_camara": "DEI-001/CAM-02", "nombre_camara": "AV 1 DE MAYO - AV BOYACA (S-N) C. RAP", "direccion": "AV BOYACÁ - CL 35 SUR (S-N)", "numero_acto": "MT-20194000619861 Diciembre 13 de 2019", "velocidad_maxima": 50, "corredor_principal": "Av. Boyacá", "via_secundaria": "Av. Primero de Mayo", "sentido": "(Sur - Norte)", "calzada": "Rápida", "carriles": 2, "localidad": "Kennedy", "infraccion": "C.29 - C.14 - C.35 - D.02", "longitud": -74.140260999996414, "latitud": 4.6153979995235757, "longitud_fuente": -74.140261, "latitud_fuente": 4.615398 }, "geometry": { "type": "Point", "coordinates": [ -74.140260999996414, 4.615397999523576 ] } },
{ "type": "Feature", "properties": { "id_registro": 3, "objectid_fuente": 3, "id_camara": "DEI-002/CAM-01", "nombre_camara": "AV BOYACA - AV AMERICAS (N-S) C. RAP", "direccion": "AV BOYACÁ - CL 5A (N-S)", "numero_acto": "MT-20194000619861 Diciembre 13 de 2019", "velocidad_maxima": 50, "corredor_principal": "Av. Boyacá", "via_secundaria": "Av. Américas", "sentido": "(Norte - Sur)", "calzada": "Rápida", "carriles": 2, "localidad": "Kennedy", "infraccion": "C.29 - C.14 - C.35 - D.02", "longitud": -74.137979999623596, "latitud": 4.6285929997156305, "longitud_fuente": -74.13798, "latitud_fuente": 4.628593 }, "geometry": { "type": "Point", "coordinates": [ -74.137979999623596, 4.628592999715631 ] } },
{ "type": "Feature", "properties": { "id_registro": 4, "objectid_fuente": 4, "id_camara": "DEI-002/CAM-02", "nombre_camara": "AV BOYACA - AV AMERICAS (S-N) C. RAP", "direccion": "AV BOYACÁ - CL 5A (S-N)", "numero_acto": "MT-20194000619861 Diciembre 13 de 2019", "velocidad_maxima": 50, "corredor_principal": "Av. Boyacá", "via_secundaria": "Av. Américas", "sentido": "(Sur - Norte)", "calzada": "Rápida", "carriles": 2, "localidad": "Kennedy", "infraccion": "C.29 - C.14 - C.35 - D.02", "longitud": -74.137915000224595, "latitud": 4.6284790001025442, "longitud_fuente": -74.137915, "latitud_fuente": 4.628479 }, "geometry": { "type": "Point", "coordinates": [ -74.137915000224595, 4.628479000102544 ] } },
{ "type": "Feature", "properties": { "id_registro": 5, "objectid_fuente": 5, "id_camara": "DEI-003/CAM-01", "nombre_camara": "AK 68 - AV AMERICAS (S-N) C. RAP", "direccion": "AK 68 - CL 4D (S-N)", "numero_acto": "MT-20194000619861 Diciembre 13 de 2019", "velocidad_maxima": 50, "corredor_principal": "Av. Carrera 68", "via_secundaria": "Av. Américas", "sentido": "(Sur - Norte)", "calzada": "Rápida", "carriles": 2, "localidad": "Puente Aranda", "infraccion": "C.29 - C.14 - C.35 - D.02", "longitud": -74.123053999799495, "latitud": 4.6273109997257427, "longitud_fuente": -74.123054, "latitud_fuente": 4.627311 }, "geometry": { "type": "Point", "coordinates": [ -74.123053999799495, 4.627310999725743 ] } },
{ "type": "Feature", "properties": { "id_registro": 6, "objectid_fuente": 6, "id_camara": "DEI-003/CAM-02", "nombre_camara": "AK 68 - AV AMERICAS (N-S) C. RAP", "direccion": "AK 68 - CL 4D (N-S)", "numero_acto": "MT-20194000619861 Diciembre 13 de 2019", "velocidad_maxima": 50, "corredor_principal": "Av. Carrera 68", "via_secundaria": "Av. Américas", "sentido": "(Norte - Sur)", "calzada": "Rápida", "carriles": 2, "localidad": "Puente Aranda", "infraccion": "C.29 - C.14 - C.35 - D.02", "longitud": -74.122984000377627, "latitud": 4.6275789998262091, "longitud_fuente": -74.122984, "latitud_fuente": 4.627579 }, "geometry": { "type": "Point", "coordinates": [ -74.122984000377627, 4.627578999826209 ] } },
{ "type": "Feature", "properties": { "id_registro": 7, "objectid_fuente": 7, "id_camara": "DEI-004/CAM-01", "nombre_camara": "CL 139 - TV 136 (O-E)", "direccion": "CL 139 - KR 131 (E-O)", "numero_acto": "MT-20194000619861 Diciembre 13 de 2019", "velocidad_maxima": 30, "corredor_principal": "Calle 139", "via_secundaria": "TV 136", "sentido": "(Oriente - Occidente)", "calzada": "Única", "carriles": 2, "localidad": "Suba", "infraccion": "C.29 - C.14 - C.35 - D.02", "longitud": -74.1124386, "latitud": 4.746529199844173, "longitud_fuente": -74.1124386, "latitud_fuente": 4.7465292 }, "geometry": { "type": "Point", "coordinates": [ -74.1124386, 4.746529199844173 ] } },
{ "type": "Feature", "properties": { "id_registro": 8, "objectid_fuente": 8, "id_camara": "DEI-005/CAM-01", "nombre_camara": "KR 33 - CL 41 SUR (S-N)", "direccion": "KR 33 - CL 41 SUR (S-N)", "numero_acto": "MT-20194000619861 Diciembre 13 de 2019", "velocidad_maxima": 30, "corredor_principal": "Av. Gaitán Cortés", "via_secundaria": "CL 41 Sur", "sentido": "(Sur - Norte)", "calzada": "Única", "carriles": 2, "localidad": "Rafael Uribe Uribe", "infraccion": "C.29 - C.14 - C.35 - D.02", "longitud": -74.125872, "latitud": 4.587856999849337, "longitud_fuente": -74.125872, "latitud_fuente": 4.587857 }, "geometry": { "type": "Point", "coordinates": [ -74.125872, 4.587856999849337 ] } },
{ "type": "Feature", "properties": { "id_registro": 9, "objectid_fuente": 9, "id_camara": "DEI-005/CAM-02", "nombre_camara": "KR 33 - CL 41 SUR (N-S)", "direccion": "KR 33 - CL 41 SUR (N-S)", "numero_acto": "MT-20194000619861 Diciembre 13 de 2019", "velocidad_maxima": 30, "corredor_principal": "Av. Gaitán Cortés", "via_secundaria": "CL 41 Sur", "sentido": "(Norte - Sur)", "calzada": "Única", "carriles": 2, "localidad": "Rafael Uribe Uribe", "infraccion": "C.29 - C.14 - C.35 - D.02", "longitud": -74.125872, "latitud": 4.587856999849337, "longitud_fuente": -74.125872, "latitud_fuente": 4.587857 }, "geometry": { "type": "Point", "coordinates": [ -74.125872, 4.587856999849337 ] } },
{ "type": "Feature", "properties": { "id_registro": 10, "objectid_fuente": 10, "id_camara": "DEI-006/CAM-01", "nombre_camara": "AV BOYACA - AUTP. SUR (N-S) C. RAP", "direccion": "AV BOYACÁ - DG 49 SUR (N-S)", "numero_acto": "MT-20194000641171 Diciembre 26 de 2019.", "velocidad_maxima": 50, "corredor_principal": "Av. Boyacá", "via_secundaria": "Autopista Sur", "sentido": "(Norte - Sur)", "calzada": "Rápida", "carriles": 2, "localidad": "Tunjuelito", "infraccion": "C.29 - C.14 - C.35 - D.02", "longitud": -74.145381, "latitud": 4.5929479998491729, "longitud_fuente": -74.145381, "latitud_fuente": 4.592948 }, "geometry": { "type": "Point", "coordinates": [ -74.145381, 4.592947999849173 ] } },
{ "type": "Feature", "properties": { "id_registro": 11, "objectid_fuente": 11, "id_camara": "DEI-006/CAM-02", "nombre_camara": "AV BOYACA - AUTP. SUR (S-N) C. RAP", "direccion": "AV BOYACÁ - DG 49 SUR (S-N)", "numero_acto": "MT-20194000641171 Diciembre 26 de 2019.", "velocidad_maxima": 50, "corredor_principal": "Av. Boyacá", "via_secundaria": "Autopista Sur", "sentido": "(Sur - Norte)", "calzada": "Rápida", "carriles": 4, "localidad": "Tunjuelito", "infraccion": "C.29 - C.14 - C.35 - D.02", "longitud": -74.145308, "latitud": 4.5929719998491843, "longitud_fuente": -74.145308, "latitud_fuente": 4.592972 }, "geometry": { "type": "Point", "coordinates": [ -74.145308, 4.592971999849184 ] } },
{ "type": "Feature", "properties": { "id_registro": 12, "objectid_fuente": 12, "id_camara": "DEI-007/CAM-01", "nombre_camara": "AV BOYACA - CL 53 (N-S) C. LEN", "direccion": "AV BOYACÁ - CL 53 (N-S)", "numero_acto": "MT-20194000641171 Diciembre 26 de 2019.", "velocidad_maxima": 50, "corredor_principal": "Av. Boyacá", "via_secundaria": "CL 53", "sentido": "(Norte - Sur)", "calzada": "Rápida", "carriles": 2, "localidad": "Engativá", "infraccion": "C.29", "longitud": -74.106976, "latitud": 4.6708589998466383, "longitud_fuente": -74.106976, "latitud_fuente": 4.670859 }, "geometry": { "type": "Point", "coordinates": [ -74.106976, 4.670858999846638 ] } },
{ "type": "Feature", "properties": { "id_registro": 13, "objectid_fuente": 13, "id_camara": "DEI-007/CAM-02", "nombre_camara": "AV BOYACA - CL 53 (S-N) C. LEN", "direccion": "AV BOYACÁ - CL 52 (S-N)", "numero_acto": "MT-20194000641171 Diciembre 26 de 2019.", "velocidad_maxima": 50, "corredor_principal": "Av. Boyacá", "via_secundaria": "CL 53", "sentido": "(Sur - Norte)", "calzada": "Rápida", "carriles": 2, "localidad": "Engativá", "infraccion": "C.29", "longitud": -74.106668, "latitud": 4.6717109998466029, "longitud_fuente": -74.106668, "latitud_fuente": 4.671711 }, "geometry": { "type": "Point", "coordinates": [ -74.106668, 4.671710999846603 ] } },
{ "type": "Feature", "properties": { "id_registro": 14, "objectid_fuente": 14, "id_camara": "DEI-007/CAM-03", "nombre_camara": "AV BOYACA - CL 63D (S-N)", "direccion": "AV BOYACÁ - CL 63D (S-N)", "numero_acto": "MT-20194000641171 Diciembre 26 de 2019.", "velocidad_maxima": 50, "corredor_principal": "Av. Boyacá", "via_secundaria": "CL 63D", "sentido": "(Sur - Norte)", "calzada": "Lenta", "carriles": 2, "localidad": "Engativá", "infraccion": "C.29", "longitud": -74.102881, "latitud": 4.6759439998464858, "longitud_fuente": -74.102881, "latitud_fuente": 4.675944 }, "geometry": { "type": "Point", "coordinates": [ -74.102881, 4.675943999846486 ] } },
{ "type": "Feature", "properties": { "id_registro": 15, "objectid_fuente": 15, "id_camara": "DEI-008/CAM-01", "nombre_camara": "CL 59 SUR - KR 78F (O-E)", "direccion": "AV BOSA - KR 78F (O-E)", "numero_acto": "MT-20194000641171 Diciembre 26 de 2019.", "velocidad_maxima": 50, "corredor_principal": "Av. Bosa", "via_secundaria": "KR 78F", "sentido": "(Occidente - Oriente)", "calzada": "Única", "carriles": 3, "localidad": "Bosa", "infraccion": "C.29 - C.14 - C.35 - D.02", "longitud": -74.180026, "latitud": 4.6045899998487885, "longitud_fuente": -74.180026, "latitud_fuente": 4.60459 }, "geometry": { "type": "Point", "coordinates": [ -74.180026, 4.604589999848788 ] } },
{ "type": "Feature", "properties": { "id_registro": 16, "objectid_fuente": 16, "id_camara": "DEI-008/CAM-02", "nombre_camara": "CL 59 SUR - KR 78F (E-O)", "direccion": "AV BOSA - KR 78F (E-O)", "numero_acto": "MT-20194000641171 Diciembre 26 de 2019.", "velocidad_maxima": 50, "corredor_principal": "Av. Bosa", "via_secundaria": "KR 78F", "sentido": "(Oriente - Occidente)", "calzada": "Única", "carriles": 3, "localidad": "Bosa", "infraccion": "C.29 - C.14 - C.35 - D.02", "longitud": -74.179862000401499, "latitud": 4.6046639994122263, "longitud_fuente": -74.179862, "latitud_fuente": 4.604664 }, "geometry": { "type": "Point", "coordinates": [ -74.179862000401499, 4.604663999412226 ] } },
{ "type": "Feature", "properties": { "id_registro": 17, "objectid_fuente": 17, "id_camara": "DEI-009/CAM-01", "nombre_camara": "AV BOYACA - AV SUBA (N-S) C. RAP", "direccion": "AV BOYACÁ - CL 131 (N-S)", "numero_acto": "MT-20194000641171 Diciembre 26 de 2019.", "velocidad_maxima": 50, "corredor_principal": "Av. Boyacá", "via_secundaria": "Av. Suba", "sentido": "(Norte - Sur)", "calzada": "Rápida", "carriles": 5, "localidad": "Suba", "infraccion": "C.29 - C.14 - C.35 - D.02", "longitud": -74.073829, "latitud": 4.7228919998449435, "longitud_fuente": -74.073829, "latitud_fuente": 4.722892 }, "geometry": { "type": "Point", "coordinates": [ -74.073829, 4.722891999844943 ] } },
{ "type": "Feature", "properties": { "id_registro": 18, "objectid_fuente": 18, "id_camara": "DEI-009/CAM-02", "nombre_camara": "AV BOYACA - AV SUBA (S-N)", "direccion": "AV BOYACÁ - CL 131 (S-N)", "numero_acto": "MT-20194000641171 Diciembre 26 de 2019.", "velocidad_maxima": 50, "corredor_principal": "Av. Boyacá", "via_secundaria": "Av. Suba", "sentido": "(Sur - Norte)", "calzada": "Única", "carriles": 5, "localidad": "Suba", "infraccion": "C.29 - C.14 - C.35 - D.02", "longitud": -74.073843, "latitud": 4.7226679998449539, "longitud_fuente": -74.073843, "latitud_fuente": 4.722668 }, "geometry": { "type": "Point", "coordinates": [ -74.073843, 4.722667999844954 ] } },
{ "type": "Feature", "properties": { "id_registro": 19, "objectid_fuente": 19, "id_camara": "DEI-010/CAM-01", "nombre_camara": "AUTONORTE - CL 94 (N-S) C. RAP", "direccion": "AUTP. NORTE - CL 95 (N-S)", "numero_acto": "MT-20194000641171 Diciembre 26 de 2019.", "velocidad_maxima": 60, "corredor_principal": "Autopista Norte", "via_secundaria": "CL 94", "sentido": "(Norte - Sur)", "calzada": "Rápida", "carriles": 3, "localidad": "Barrios Unidos", "infraccion": "C.29 - C.14 - C.35 - D.02", "longitud": -74.057933, "latitud": 4.6837429998462179, "longitud_fuente": -74.057933, "latitud_fuente": 4.683743 }, "geometry": { "type": "Point", "coordinates": [ -74.057933, 4.683742999846218 ] } },
{ "type": "Feature", "properties": { "id_registro": 20, "objectid_fuente": 20, "id_camara": "DEI-010/CAM-02", "nombre_camara": "AUTONORTE - CL 94 (N-S) C. LEN", "direccion": "AUTP. NORTE - CL 95 (N-S)", "numero_acto": "MT-20194000641171 Diciembre 26 de 2019.", "velocidad_maxima": 60, "corredor_principal": "Autopista Norte", "via_secundaria": "CL 94", "sentido": "(Norte - Sur)", "calzada": "Lenta", "carriles": 3, "localidad": "Barrios Unidos", "infraccion": "C.29 - C.14 - C.35 - D.02", "longitud": -74.058104, "latitud": 4.6837549998462142, "longitud_fuente": -74.058104, "latitud_fuente": 4.683755 }, "geometry": { "type": "Point", "coordinates": [ -74.058104, 4.683754999846214 ] } },
{ "type": "Feature", "properties": { "id_registro": 21, "objectid_fuente": 21, "id_camara": "DEI-010/CAM-03", "nombre_camara": "AUTONORTE - CL 94 (S-N) CAM 3", "direccion": "AUTP. NORTE - CL 97 (S-N)", "numero_acto": "MT-20194000641171 Diciembre 26 de 2019.", "velocidad_maxima": 60, "corredor_principal": "Autopista Norte", "via_secundaria": "CL 94", "sentido": "(Sur - Norte)", "calzada": "Lenta", "carriles": 5, "localidad": "Chapinero", "infraccion": "C.29 - C.14 - C.35 - D.02", "longitud": -74.057286, "latitud": 4.6849009998461826, "longitud_fuente": -74.057286, "latitud_fuente": 4.684901 }, "geometry": { "type": "Point", "coordinates": [ -74.057286, 4.684900999846183 ] } },
{ "type": "Feature", "properties": { "id_registro": 22, "objectid_fuente": 22, "id_camara": "DEI-010/CAM-04", "nombre_camara": "AUTONORTE - CL 94 (S-N) CAM 4", "direccion": "AUTP. NORTE - CL 97 (S-N)", "numero_acto": "MT-20194000641171 Diciembre 26 de 2019.", "velocidad_maxima": 60, "corredor_principal": "Autopista Norte", "via_secundaria": "CL 94", "sentido": "(Sur - Norte)", "calzada": "Rápida", "carriles": 2, "localidad": "Chapinero", "infraccion": "C.29 - C.14 - C.35 - D.02", "longitud": -74.057286, "latitud": 4.6849009998461826, "longitud_fuente": -74.057286, "latitud_fuente": 4.684901 }, "geometry": { "type": "Point", "coordinates": [ -74.057286, 4.684900999846183 ] } },
{ "type": "Feature", "properties": { "id_registro": 23, "objectid_fuente": 23, "id_camara": "DEI-011/CAM-01", "nombre_camara": "AV CIUDAD DE CALI - AV CENTENARIO (S-N)", "direccion": "AV CIUDAD DE CALI - CL 15A (S-N)", "numero_acto": "MT-20194000641171 Diciembre 26 de 2019.", "velocidad_maxima": 50, "corredor_principal": "Av. Ciudad de Cali", "via_secundaria": "Av. Centenario", "sentido": "(Sur - Norte)", "calzada": "Única", "carriles": 3, "localidad": "Kennedy", "infraccion": "C.29 - C.14 - C.35 - D.02", "longitud": -74.138196, "latitud": 4.6570559998470911, "longitud_fuente": -74.138196, "latitud_fuente": 4.657056 }, "geometry": { "type": "Point", "coordinates": [ -74.138196, 4.657055999847091 ] } },
{ "type": "Feature", "properties": { "id_registro": 24, "objectid_fuente": 24, "id_camara": "DEI-011/CAM-02", "nombre_camara": "AV CIUDAD DE CALI - AV CENTENARIO (N-S)", "direccion": "AV CIUDAD DE CALI - CL 15A (N-S)", "numero_acto": "MT-20194000641171 Diciembre 26 de 2019.", "velocidad_maxima": 50, "corredor_principal": "Av. Ciudad de Cali", "via_secundaria": "Av. Centenario", "sentido": "(Norte - Sur)", "calzada": "Única", "carriles": 3, "localidad": "Kennedy", "infraccion": "C.29 - C.14 - C.35 - D.02", "longitud": -74.138196, "latitud": 4.6570559998470911, "longitud_fuente": -74.138196, "latitud_fuente": 4.657056 }, "geometry": { "type": "Point", "coordinates": [ -74.138196, 4.657055999847091 ] } },
{ "type": "Feature", "properties": { "id_registro": 25, "objectid_fuente": 25, "id_camara": "DEI-012/CAM-01", "nombre_camara": "NQS - AV AMERICAS (N-S)", "direccion": "NQS - CL 22 (N-S)", "numero_acto": "MT-20194000641171 Diciembre 26 de 2019.", "velocidad_maxima": 50, "corredor_principal": "Av. NQS", "via_secundaria": "Av. Américas", "sentido": "(Norte - Sur)", "calzada": "Única", "carriles": 5, "localidad": "Puente Aranda", "infraccion": "C.29 - C.14 - C.35 - D.02", "longitud": -74.085441, "latitud": 4.6220099998482311, "longitud_fuente": -74.085441, "latitud_fuente": 4.62201 }, "geometry": { "type": "Point", "coordinates": [ -74.085441, 4.622009999848231 ] } },
{ "type": "Feature", "properties": { "id_registro": 26, "objectid_fuente": 26, "id_camara": "DEI-012/CAM-02", "nombre_camara": "NQS - AV AMERICAS (S-N)", "direccion": "NQS - CL 22 (S-N)", "numero_acto": "MT-20194000641171 Diciembre 26 de 2019.", "velocidad_maxima": 50, "corredor_principal": "Av. NQS", "via_secundaria": "Av. Américas", "sentido": "(Sur - Norte)", "calzada": "Única", "carriles": 5, "localidad": "Puente Aranda", "infraccion": "C.29 - C.14 - C.35 - D.02", "longitud": -74.0855444, "latitud": 4.6219799998482305, "longitud_fuente": -74.0855444, "latitud_fuente": 4.62198 }, "geometry": { "type": "Point", "coordinates": [ -74.085544399999989, 4.62197999984823 ] } },
{ "type": "Feature", "properties": { "id_registro": 27, "objectid_fuente": 27, "id_camara": "DEI-013/CAM-01", "nombre_camara": "AC 80 - KR 102 (E-O) C. RAP", "direccion": "AC 80 - KR 102 (E-O)", "numero_acto": "MT-20194000641171 Diciembre 26 de 2019.", "velocidad_maxima": 50, "corredor_principal": "Av. Calle 80", "via_secundaria": "KR 102", "sentido": "(Oriente - Occidente)", "calzada": "Rápida", "carriles": 2, "localidad": "Engativá", "infraccion": "C.29 - C.14 - C.35 - D.02", "longitud": -74.114374, "latitud": 4.712026999845297, "longitud_fuente": -74.114374, "latitud_fuente": 4.712027 }, "geometry": { "type": "Point", "coordinates": [ -74.114374, 4.712026999845297 ] } },
{ "type": "Feature", "properties": { "id_registro": 28, "objectid_fuente": 28, "id_camara": "DEI-013/CAM-02", "nombre_camara": "AC 80 - KR 102 (O-E) C. RAP", "direccion": "AC 80 - KR 102 (O-E)", "numero_acto": "MT-20194000641171 Diciembre 26 de 2019.", "velocidad_maxima": 50, "corredor_principal": "Av. Calle 80", "via_secundaria": "KR 102", "sentido": "(Occidente - Oriente)", "calzada": "Rápida", "carriles": 2, "localidad": "Engativá", "infraccion": "C.29 - C.14 - C.35 - D.02", "longitud": -74.114011, "latitud": 4.7119269998453008, "longitud_fuente": -74.114011, "latitud_fuente": 4.711927 }, "geometry": { "type": "Point", "coordinates": [ -74.114011, 4.711926999845301 ] } },
{ "type": "Feature", "properties": { "id_registro": 29, "objectid_fuente": 29, "id_camara": "DEI-014/CAM-01", "nombre_camara": "AV 1 DE MAYO - CL 45 SUR (S-N)", "direccion": "AV 1 DE MAYO - CL 45 SUR (S-N)", "numero_acto": "MT-20194000641171 Diciembre 26 de 2019.", "velocidad_maxima": 40, "corredor_principal": "Av. Primero de Mayo", "via_secundaria": "CL 45 Sur", "sentido": "(Sur - Norte)", "calzada": "Única", "carriles": 3, "localidad": "Kennedy", "infraccion": "D.04 - D.02 - C.14 - C.35", "longitud": -74.164796, "latitud": 4.61427799984848, "longitud_fuente": -74.164796, "latitud_fuente": 4.614278 }, "geometry": { "type": "Point", "coordinates": [ -74.164796, 4.61427799984848 ] } },
{ "type": "Feature", "properties": { "id_registro": 30, "objectid_fuente": 30, "id_camara": "DEI-014/CAM-02", "nombre_camara": "AV 1 DE MAYO - CL 45 SUR (N-S)", "direccion": "AV 1 DE MAYO - CL 45 SUR (N-S)", "numero_acto": "MT-20194000641171 Diciembre 26 de 2019.", "velocidad_maxima": 40, "corredor_principal": "Av. Primero de Mayo", "via_secundaria": "CL 45 Sur", "sentido": "(Norte - Sur)", "calzada": "Única", "carriles": 3, "localidad": "Kennedy", "infraccion": "D.04 - D.02 - C.14 - C.35", "longitud": -74.164117, "latitud": 4.614664999848463, "longitud_fuente": -74.164117, "latitud_fuente": 4.614665 }, "geometry": { "type": "Point", "coordinates": [ -74.164117, 4.614664999848463 ] } },
{ "type": "Feature", "properties": { "id_registro": 31, "objectid_fuente": 31, "id_camara": "DEI-015/CAM-01", "nombre_camara": "AV CIUDAD DE CALI - CL 133A (N-S)", "direccion": "AV CIUDAD DE CALI - CL 135A (N-S)", "numero_acto": "MT-20194000641171 Diciembre 26 de 2019.", "velocidad_maxima": 30, "corredor_principal": "Av. Ciudad de Cali", "via_secundaria": "CL 133 A", "sentido": "(Norte - Sur)", "calzada": "Única", "carriles": 3, "localidad": "Suba", "infraccion": "D.04 - D.02 - C.14 - C.35", "longitud": -74.099365, "latitud": 4.7391269998444159, "longitud_fuente": -74.099365, "latitud_fuente": 4.739127 }, "geometry": { "type": "Point", "coordinates": [ -74.099365, 4.739126999844416 ] } },
{ "type": "Feature", "properties": { "id_registro": 32, "objectid_fuente": 32, "id_camara": "DEI-015/CAM-02", "nombre_camara": "AV CIUDAD DE CALI - CL 133A (S-N)", "direccion": "AV CIUDAD DE CALI - CL 135A (S-N)", "numero_acto": "MT-20194000641171 Diciembre 26 de 2019.", "velocidad_maxima": 30, "corredor_principal": "Av. Ciudad de Cali", "via_secundaria": "CL 133 A", "sentido": "(Sur - Norte)", "calzada": "Única", "carriles": 3, "localidad": "Suba", "infraccion": "D.04 - D.02 - C.14 - C.35", "longitud": -74.099386, "latitud": 4.7389969998444315, "longitud_fuente": -74.099386, "latitud_fuente": 4.738997 }, "geometry": { "type": "Point", "coordinates": [ -74.099386, 4.738996999844431 ] } },
{ "type": "Feature", "properties": { "id_registro": 33, "objectid_fuente": 33, "id_camara": "DEI-016/CAM-01", "nombre_camara": "NQS - CL 59 (N-S) C. RAP", "direccion": "NQS - CL 58A (N-S)", "numero_acto": "MT-No. 2024000013091 Enero 20 de 2020", "velocidad_maxima": 50, "corredor_principal": "Av. NQS", "via_secundaria": "CL 59r", "sentido": "(Norte - Sur)", "calzada": "Única", "carriles": 2, "localidad": "Teusaquillo", "infraccion": "C.29 - C.14 - C.35 - D.02", "longitud": -74.078438, "latitud": 4.6490699998473453, "longitud_fuente": -74.078438, "latitud_fuente": 4.64907 }, "geometry": { "type": "Point", "coordinates": [ -74.078438, 4.649069999847345 ] } },
{ "type": "Feature", "properties": { "id_registro": 34, "objectid_fuente": 34, "id_camara": "DEI-016/CAM-02", "nombre_camara": "NQS - CL 59 (S-N) C. LEN", "direccion": "NQS - CL 58A (S-N)", "numero_acto": "MT-No. 2024000013091 Enero 20 de 2020", "velocidad_maxima": 50, "corredor_principal": "Av. NQS", "via_secundaria": "CL 59", "sentido": "(Sur - Norte)", "calzada": "Única", "carriles": 4, "localidad": "Teusaquillo", "infraccion": "C.29 - C.14 - C.35 - D.02", "longitud": -74.078201, "latitud": 4.6490629998473549, "longitud_fuente": -74.078201, "latitud_fuente": 4.649063 }, "geometry": { "type": "Point", "coordinates": [ -74.078201, 4.649062999847355 ] } },
{ "type": "Feature", "properties": { "id_registro": 35, "objectid_fuente": 35, "id_camara": "DEI-016/CAM-03", "nombre_camara": "NQS - CL 59 (N-S) C. LEN", "direccion": "NQS - CL 58A (N-S)", "numero_acto": "MT-No. 2024000013091 Enero 20 de 2020", "velocidad_maxima": 50, "corredor_principal": "Av. NQS", "via_secundaria": "CL 59", "sentido": "(Norte - Sur)", "calzada": "Única", "carriles": 3, "localidad": "Teusaquillo", "infraccion": "C.29 - C.14 - C.35 - D.02", "longitud": -74.078818, "latitud": 4.6495349998473241, "longitud_fuente": -74.078818, "latitud_fuente": 4.649535 }, "geometry": { "type": "Point", "coordinates": [ -74.078818, 4.649534999847324 ] } },
{ "type": "Feature", "properties": { "id_registro": 36, "objectid_fuente": 36, "id_camara": "DEI-017/CAM-01", "nombre_camara": "AUTONORTE - CL 100 (N-S) C. LEN", "direccion": "AUTP. NORTE - CL 102 A (N-S)", "numero_acto": "MT-No. 2024000013091 Enero 20 de 2020", "velocidad_maxima": 60, "corredor_principal": "Autopista Norte", "via_secundaria": "CL 100", "sentido": "(Norte - Sur)", "calzada": "Lenta", "carriles": 3, "localidad": "Suba", "infraccion": "C.29 - C.14 - C.35 - D.02", "longitud": -74.057123, "latitud": 4.6895699998460261, "longitud_fuente": -74.057123, "latitud_fuente": 4.68957 }, "geometry": { "type": "Point", "coordinates": [ -74.057123, 4.689569999846026 ] } },
{ "type": "Feature", "properties": { "id_registro": 37, "objectid_fuente": 37, "id_camara": "DEI-017/CAM-02", "nombre_camara": "AUTONORTE - CL 100 (N-S) C. RAP", "direccion": "AUTP. NORTE - CL 102 A (N-S)", "numero_acto": "MT-No. 2024000013091 Enero 20 de 2020", "velocidad_maxima": 60, "corredor_principal": "Autopista Norte", "via_secundaria": "CL 100", "sentido": "(Norte - Sur)", "calzada": "Rápida", "carriles": 3, "localidad": "Suba", "infraccion": "C.29 - C.14 - C.35 - D.02", "longitud": -74.057024, "latitud": 4.6895579998460288, "longitud_fuente": -74.057024, "latitud_fuente": 4.689558 }, "geometry": { "type": "Point", "coordinates": [ -74.057024, 4.689557999846029 ] } },
{ "type": "Feature", "properties": { "id_registro": 38, "objectid_fuente": 38, "id_camara": "DEI-017/CAM-03", "nombre_camara": "AUTONORTE - CL 100 (S-N) C. RAP", "direccion": "AUTP. NORTE - CL 103 (S-N)", "numero_acto": "MT-No. 2024000013091 Enero 20 de 2020", "velocidad_maxima": 60, "corredor_principal": "Autopista Norte", "via_secundaria": "CL 100", "sentido": "(Sur - Norte)", "calzada": "Rápida", "carriles": 3, "localidad": "Usaquén", "infraccion": "C.29 - C.14 - C.35 - D.02", "longitud": -74.056519, "latitud": 4.6898079998460238, "longitud_fuente": -74.056519, "latitud_fuente": 4.689808 }, "geometry": { "type": "Point", "coordinates": [ -74.056519, 4.689807999846024 ] } },
{ "type": "Feature", "properties": { "id_registro": 39, "objectid_fuente": 39, "id_camara": "DEI-017/CAM-04", "nombre_camara": "AUTONORTE - CL 100 (S-N) C. LEN", "direccion": "AUTP. NORTE - CL 103 (S-N)", "numero_acto": "MT-No. 2024000013091 Enero 20 de 2020", "velocidad_maxima": 60, "corredor_principal": "Autopista Norte", "via_secundaria": "CL 100", "sentido": "(Sur - Norte)", "calzada": "Lenta", "carriles": 3, "localidad": "Usaquén", "infraccion": "C.29 - C.14 - C.35 - D.02", "longitud": -74.056347, "latitud": 4.6897839998460196, "longitud_fuente": -74.056347, "latitud_fuente": 4.689784 }, "geometry": { "type": "Point", "coordinates": [ -74.056347, 4.68978399984602 ] } },
{ "type": "Feature", "properties": { "id_registro": 40, "objectid_fuente": 40, "id_camara": "DEI-018/CAM-01", "nombre_camara": "CL 11 SUR - AK 10 (N-S)", "direccion": "AK 10 - CL 13 SUR (N-S)", "numero_acto": "MT-No. 2024000013091 Enero 20 de 2020", "velocidad_maxima": 30, "corredor_principal": "Av. Carrera 10", "via_secundaria": "CL 11 Sur", "sentido": "(Norte - Sur)", "calzada": "Única", "carriles": 2, "localidad": "Antonio Nariño", "infraccion": "C.29 - C.14 - C.35 - D.02", "longitud": -74.091327, "latitud": 4.5804409998495865, "longitud_fuente": -74.091327, "latitud_fuente": 4.580441 }, "geometry": { "type": "Point", "coordinates": [ -74.091327, 4.580440999849587 ] } },
{ "type": "Feature", "properties": { "id_registro": 41, "objectid_fuente": 41, "id_camara": "DEI-018/CAM-02", "nombre_camara": "CL 11 SUR - AK 10 (S-N)", "direccion": "AK 10 - CL 13 SUR (S-N)", "numero_acto": "MT-No. 2024000013091 Enero 20 de 2020", "velocidad_maxima": 30, "corredor_principal": "Av. Carrera 10", "via_secundaria": "CL 11 Sur", "sentido": "(Sur - Norte)", "calzada": "Única", "carriles": 2, "localidad": "San Cristóbal", "infraccion": "C.29 - C.14 - C.35 - D.02", "longitud": -74.091083, "latitud": 4.5802919998495852, "longitud_fuente": -74.091083, "latitud_fuente": 4.580292 }, "geometry": { "type": "Point", "coordinates": [ -74.091083, 4.580291999849585 ] } },
{ "type": "Feature", "properties": { "id_registro": 42, "objectid_fuente": 42, "id_camara": "DEI-019/CAM-01", "nombre_camara": "NQS - AC 72 (N-S)", "direccion": "NQS - AC 72 (N-S)", "numero_acto": "MT-No. 2024000013091 Enero 20 de 2020", "velocidad_maxima": 50, "corredor_principal": "Av. NQS", "via_secundaria": "AC 72", "sentido": "(Norte - Sur)", "calzada": "Única", "carriles": 4, "localidad": "Barrios Unidos", "infraccion": "C.29 - C.14 - C.35 - D.02", "longitud": -74.074036, "latitud": 4.6674249998467499, "longitud_fuente": -74.074036, "latitud_fuente": 4.667425 }, "geometry": { "type": "Point", "coordinates": [ -74.074036, 4.66742499984675 ] } },
{ "type": "Feature", "properties": { "id_registro": 43, "objectid_fuente": 43, "id_camara": "DEI-019/CAM-02", "nombre_camara": "NQS - AC 72 (S-N)", "direccion": "NQS - AC 73 (S-N)", "numero_acto": "MT-No. 2024000013091 Enero 20 de 2020", "velocidad_maxima": 50, "corredor_principal": "Av. NQS", "via_secundaria": "AC 72", "sentido": "(Sur - Norte)", "calzada": "Única", "carriles": 4, "localidad": "Barrios Unidos", "infraccion": "C.29 - C.14 - C.35 - D.02", "longitud": -74.072153, "latitud": 4.6687729998467091, "longitud_fuente": -74.072153, "latitud_fuente": 4.668773 }, "geometry": { "type": "Point", "coordinates": [ -74.072153, 4.668772999846709 ] } },
{ "type": "Feature", "properties": { "id_registro": 44, "objectid_fuente": 44, "id_camara": "DEI-020/CAM-01", "nombre_camara": "AV CIUDAD DE CALI - AC 80 (N-S)", "direccion": "AK 86 - CL 75A (S-N)", "numero_acto": "MT-No. 2024000013091 Enero 20 de 2020", "velocidad_maxima": 50, "corredor_principal": "Av. Ciudad de Cali", "via_secundaria": "AC 80", "sentido": "(Norte - Sur)", "calzada": "Única", "carriles": 3, "localidad": "Engativá", "infraccion": "C.29 - C.14 - C.35 - D.02", "longitud": -74.102772, "latitud": 4.7008169998456655, "longitud_fuente": -74.102772, "latitud_fuente": 4.700817 }, "geometry": { "type": "Point", "coordinates": [ -74.102772, 4.700816999845665 ] } },
{ "type": "Feature", "properties": { "id_registro": 45, "objectid_fuente": 45, "id_camara": "DEI-020/CAM-02", "nombre_camara": "AV CIUDAD DE CALI - AC 80 (S-N)", "direccion": "AK 86 - CL 76 (N-S)", "numero_acto": "MT-No. 2024000013091 Enero 20 de 2020", "velocidad_maxima": 50, "corredor_principal": "Av. Ciudad de Cali", "via_secundaria": "AC 80", "sentido": "(Sur - Norte)", "calzada": "Única", "carriles": 3, "localidad": "Engativá", "infraccion": "C.29 - C.14 - C.35 - D.02", "longitud": -74.102949, "latitud": 4.7004929998456797, "longitud_fuente": -74.102949, "latitud_fuente": 4.700493 }, "geometry": { "type": "Point", "coordinates": [ -74.102949, 4.70049299984568 ] } },
{ "type": "Feature", "properties": { "id_registro": 46, "objectid_fuente": 46, "id_camara": "DEI-021/CAM-01", "nombre_camara": "AV CARACAS - CL 60 (S-N)", "direccion": "AV CARACAS - CL 59A (S-N)", "numero_acto": "MT-No. 2024000013091 Enero 20 de 2020", "velocidad_maxima": 50, "corredor_principal": "Av. Caracas", "via_secundaria": "CL 60", "sentido": "(Sur - Norte)", "calzada": "Única", "carriles": 2, "localidad": "Chapinero", "infraccion": "D.04 - C.29 - C.14 - C.35 - D.02", "longitud": -74.064996, "latitud": 4.6467219998474212, "longitud_fuente": -74.064996, "latitud_fuente": 4.646722 }, "geometry": { "type": "Point", "coordinates": [ -74.064996, 4.646721999847421 ] } },
{ "type": "Feature", "properties": { "id_registro": 47, "objectid_fuente": 47, "id_camara": "DEI-021/CAM-02", "nombre_camara": "AV CARACAS - CL 60 (N-S)", "direccion": "AV CARACAS - CL 59A (N-S)", "numero_acto": "MT-No. 2024000013091 Enero 20 de 2020", "velocidad_maxima": 50, "corredor_principal": "Av. Caracas", "via_secundaria": "CL 60", "sentido": "(Norte - Sur)", "calzada": "Única", "carriles": 2, "localidad": "Teusaquillo", "infraccion": "D.04 - C.29 - C.14 - C.35 - D.02", "longitud": -74.065202, "latitud": 4.6474549998474037, "longitud_fuente": -74.065202, "latitud_fuente": 4.647455 }, "geometry": { "type": "Point", "coordinates": [ -74.065202, 4.647454999847404 ] } },
{ "type": "Feature", "properties": { "id_registro": 48, "objectid_fuente": 48, "id_camara": "DEI-022/CAM-01", "nombre_camara": "AUTONORTE - CL 170 (N-S) CAM 1", "direccion": "AUTP. NORTE - CL 169 (N-S)", "numero_acto": "MT-No. 2024000013091 Enero 20 de 2020", "velocidad_maxima": 60, "corredor_principal": "Autopista Norte", "via_secundaria": "CL 170", "sentido": "(Norte - Sur)", "calzada": "Lenta", "carriles": 2, "localidad": "Suba", "infraccion": "C.29 - C.14 - C.35 - D.02", "longitud": -74.046951, "latitud": 4.7506889998440345, "longitud_fuente": -74.046951, "latitud_fuente": 4.750689 }, "geometry": { "type": "Point", "coordinates": [ -74.046951, 4.750688999844034 ] } },
{ "type": "Feature", "properties": { "id_registro": 49, "objectid_fuente": 49, "id_camara": "DEI-022/CAM-02", "nombre_camara": "AUTONORTE - CL 170 (N-S) CAM 2", "direccion": "AUTP. NORTE - CL 169 (N-S)", "numero_acto": "MT-No. 2024000013091 Enero 20 de 2020", "velocidad_maxima": 60, "corredor_principal": "Autopista Norte", "via_secundaria": "CL 170", "sentido": "(Norte - Sur)", "calzada": "Rápida", "carriles": 3, "localidad": "Suba", "infraccion": "C.29 - C.14 - C.35 - D.02", "longitud": -74.046951, "latitud": 4.7506889998440345, "longitud_fuente": -74.046951, "latitud_fuente": 4.750689 }, "geometry": { "type": "Point", "coordinates": [ -74.046951, 4.750688999844034 ] } },
{ "type": "Feature", "properties": { "id_registro": 50, "objectid_fuente": 50, "id_camara": "DEI-022/CAM-03", "nombre_camara": "AUTONORTE - CL 170 (S-N) CAM 3", "direccion": "AUTP. NORTE - CL 172A (S-N)", "numero_acto": "MT-No. 2024000013091 Enero 20 de 2020", "velocidad_maxima": 60, "corredor_principal": "Autopista Norte", "via_secundaria": "CL 170", "sentido": "(Sur - Norte)", "calzada": "Lenta", "carriles": 3, "localidad": "Usaquén", "infraccion": "C.29 - C.14 - C.35 - D.02", "longitud": -74.045449, "latitud": 4.7553239998438839, "longitud_fuente": -74.045449, "latitud_fuente": 4.755324 }, "geometry": { "type": "Point", "coordinates": [ -74.045449, 4.755323999843884 ] } },
{ "type": "Feature", "properties": { "id_registro": 51, "objectid_fuente": 51, "id_camara": "DEI-022/CAM-04", "nombre_camara": "AUTONORTE - CL 170 (S-N) CAM 4", "direccion": "AUTP. NORTE - CL 172A (S-N)", "numero_acto": "MT-No. 2024000013091 Enero 20 de 2020", "velocidad_maxima": 60, "corredor_principal": "Autopista Norte", "via_secundaria": "CL 170", "sentido": "(Sur - Norte)", "calzada": "Rápida", "carriles": 3, "localidad": "Usaquén", "infraccion": "C.29 - C.14 - C.35 - D.02", "longitud": -74.045449, "latitud": 4.7553239998438839, "longitud_fuente": -74.045449, "latitud_fuente": 4.755324 }, "geometry": { "type": "Point", "coordinates": [ -74.045449, 4.755323999843884 ] } },
{ "type": "Feature", "properties": { "id_registro": 52, "objectid_fuente": 52, "id_camara": "DEI-023/CAM-01", "nombre_camara": "AV BOYACA - AC 26 (N-S) C. RAP", "direccion": "AV BOYACÁ - CL 24C (N-S)", "numero_acto": "MT-No. 2024000013091 Enero 20 de 2020", "velocidad_maxima": 50, "corredor_principal": "Av. Boyacá", "via_secundaria": "AC 26", "sentido": "(Norte - Sur)", "calzada": "Rápida", "carriles": 2, "localidad": "Fontibón", "infraccion": "C.29 - C.14 - C.35 - D.02", "longitud": -74.113866, "latitud": 4.6639289998468731, "longitud_fuente": -74.113866, "latitud_fuente": 4.663929 }, "geometry": { "type": "Point", "coordinates": [ -74.113866, 4.663928999846873 ] } },
{ "type": "Feature", "properties": { "id_registro": 53, "objectid_fuente": 53, "id_camara": "DEI-023/CAM-02", "nombre_camara": "AV BOYACA - AC 26 (S-N) C. RAP", "direccion": "AV BOYACÁ - CL 24C (S-N)", "numero_acto": "MT-No. 2024000013091 Enero 20 de 2020", "velocidad_maxima": 50, "corredor_principal": "Av. Boyacá", "via_secundaria": "AC 26", "sentido": "(Sur - Norte)", "calzada": "Rápida", "carriles": 2, "localidad": "Fontibón", "infraccion": "C.29 - C.14 - C.35 - D.02", "longitud": -74.113855, "latitud": 4.6638619998468664, "longitud_fuente": -74.113855, "latitud_fuente": 4.663862 }, "geometry": { "type": "Point", "coordinates": [ -74.113855, 4.663861999846866 ] } },
{ "type": "Feature", "properties": { "id_registro": 54, "objectid_fuente": 54, "id_camara": "DEI-024/CAM-01", "nombre_camara": "ROTONDA BANDERAS (O-E)", "direccion": "AV AMÉRICAS - KR 78 (O-E)", "numero_acto": "MT-No. 2024000013091 Enero 20 de 2020", "velocidad_maxima": 50, "corredor_principal": "Av. Américas", "via_secundaria": "Rotonda Banderas", "sentido": "(Occidente - Oriente)", "calzada": "Única", "carriles": 5, "localidad": "Kennedy", "infraccion": "C.29 - C.14 - C.35 - D.02", "longitud": -74.145344, "latitud": 4.6309489998479441, "longitud_fuente": -74.145344, "latitud_fuente": 4.630949 }, "geometry": { "type": "Point", "coordinates": [ -74.145344, 4.630948999847944 ] } },
{ "type": "Feature", "properties": { "id_registro": 55, "objectid_fuente": 55, "id_camara": "DEI-024/CAM-02", "nombre_camara": "ROTONDA BANDERAS (E-O)", "direccion": "AV AMÉRICAS - TV 78C (E-O)", "numero_acto": "MT-No. 2024000013091 Enero 20 de 2020", "velocidad_maxima": 50, "corredor_principal": "Av. Américas", "via_secundaria": "Rotonda Banderas", "sentido": "(Oriente - Occidente)", "calzada": "Única", "carriles": 5, "localidad": "Kennedy", "infraccion": "C.29 - C.14 - C.35 - D.02", "longitud": -74.15041, "latitud": 4.6330579998478756, "longitud_fuente": -74.15041, "latitud_fuente": 4.633058 }, "geometry": { "type": "Point", "coordinates": [ -74.15041, 4.633057999847876 ] } },
{ "type": "Feature", "properties": { "id_registro": 56, "objectid_fuente": 56, "id_camara": "DEI-025/CAM-01", "nombre_camara": "AUTONORTE - CL 183 (N-S) CAM 1", "direccion": "AUTP. NORTE - CL 183 (N-S)", "numero_acto": "MT-No. 2024000013091 Enero 20 de 2020", "velocidad_maxima": 60, "corredor_principal": "Autopista Norte", "via_secundaria": "CL 183", "sentido": "(Norte - Sur)", "calzada": "Lenta", "carriles": 3, "localidad": "Suba", "infraccion": "C.29 - C.14 - C.35 - D.02", "longitud": -74.044827, "latitud": 4.7617769998436836, "longitud_fuente": -74.044827, "latitud_fuente": 4.761777 }, "geometry": { "type": "Point", "coordinates": [ -74.044827, 4.761776999843684 ] } },
{ "type": "Feature", "properties": { "id_registro": 57, "objectid_fuente": 57, "id_camara": "DEI-025/CAM-02", "nombre_camara": "AUTONORTE - CL 183 (N-S) CAM 2", "direccion": "AUTP. NORTE - CL 183 (N-S)", "numero_acto": "MT-No. 2024000013091 Enero 20 de 2020", "velocidad_maxima": 60, "corredor_principal": "Autopista Norte", "via_secundaria": "CL 183", "sentido": "(Norte - Sur)", "calzada": "Rápida", "carriles": 3, "localidad": "Suba", "infraccion": "C.29 - C.14 - C.35 - D.02", "longitud": -74.044827, "latitud": 4.7617769998436836, "longitud_fuente": -74.044827, "latitud_fuente": 4.761777 }, "geometry": { "type": "Point", "coordinates": [ -74.044827, 4.761776999843684 ] } },
{ "type": "Feature", "properties": { "id_registro": 58, "objectid_fuente": 58, "id_camara": "DEI-025/CAM-03", "nombre_camara": "AUTONORTE - CL 183 (S-N) CAM 3", "direccion": "AUTP. NORTE - CL 183A (S-N)", "numero_acto": "MT-No. 2024000013091 Enero 20 de 2020", "velocidad_maxima": 60, "corredor_principal": "Autopista Norte", "via_secundaria": "CL 183", "sentido": "(Sur - Norte)", "calzada": "Lenta", "carriles": 3, "localidad": "Usaquén", "infraccion": "C.29 - C.14 - C.35 - D.02", "longitud": -74.044596, "latitud": 4.7617449998436774, "longitud_fuente": -74.044596, "latitud_fuente": 4.761745 }, "geometry": { "type": "Point", "coordinates": [ -74.044596, 4.761744999843677 ] } },
{ "type": "Feature", "properties": { "id_registro": 59, "objectid_fuente": 59, "id_camara": "DEI-025/CAM-04", "nombre_camara": "AUTONORTE - CL 183 (S-N) CAM 4", "direccion": "AUTP. NORTE - CL 183A (S-N)", "numero_acto": "MT-No. 2024000013091 Enero 20 de 2020", "velocidad_maxima": 60, "corredor_principal": "Autopista Norte", "via_secundaria": "CL 183", "sentido": "(Sur - Norte)", "calzada": "Rápida", "carriles": 3, "localidad": "Usaquén", "infraccion": "C.29 - C.14 - C.35 - D.02", "longitud": -74.044596, "latitud": 4.7617449998436774, "longitud_fuente": -74.044596, "latitud_fuente": 4.761745 }, "geometry": { "type": "Point", "coordinates": [ -74.044596, 4.761744999843677 ] } },
{ "type": "Feature", "properties": { "id_registro": 60, "objectid_fuente": 60, "id_camara": "DEI-026/CAM-01", "nombre_camara": "AC 61 SUR - KR 32 (O-E)", "direccion": "AV VILLAVICENCIO - KR 32 (O-E)", "numero_acto": "MT. No.: 20204000111021 Marzo 27 de 2020", "velocidad_maxima": 50, "corredor_principal": "Av Villavicencio", "via_secundaria": "KR 32", "sentido": "(Occidente - Oriente)", "calzada": "Única", "carriles": 3, "localidad": "Ciudad Bolívar", "infraccion": "D.04 - C.35 - D.02", "longitud": -74.149281999758827, "latitud": 4.5708099999225471, "longitud_fuente": -74.149282, "latitud_fuente": 4.57081 }, "geometry": { "type": "Point", "coordinates": [ -74.149281999758827, 4.570809999922547 ] } },
{ "type": "Feature", "properties": { "id_registro": 61, "objectid_fuente": 61, "id_camara": "DEI-026/CAM-02", "nombre_camara": "AC 61 SUR - KR 32 (E-O)", "direccion": "AV VILLAVICENCIO - KR 28 (E-O)", "numero_acto": "MT. No.: 20204000111021 Marzo 27 de 2020", "velocidad_maxima": 50, "corredor_principal": "Av Villavicencio", "via_secundaria": "KR 32", "sentido": "(Oriente - Occidente)", "calzada": "Única", "carriles": 3, "localidad": "Ciudad Bolívar", "infraccion": "D.04 - C.35 - D.02", "longitud": -74.148791000387476, "latitud": 4.570567000260974, "longitud_fuente": -74.148791, "latitud_fuente": 4.570567 }, "geometry": { "type": "Point", "coordinates": [ -74.148791000387476, 4.570567000260974 ] } },
{ "type": "Feature", "properties": { "id_registro": 62, "objectid_fuente": 62, "id_camara": "DEI-027/CAM-01", "nombre_camara": "AK 10A - CL 19 (S-N)", "direccion": "AK 10 - CL 18 (S-N)", "numero_acto": "MT. No.: 20204000111021 Marzo 27 de 2020", "velocidad_maxima": 50, "corredor_principal": "Av. Carrera 10", "via_secundaria": "CL 19", "sentido": "(Sur - Norte)", "calzada": "Única", "carriles": 2, "localidad": "Santa Fe", "infraccion": "C.29 - D.04 - C.35 - D.02", "longitud": -74.073988999941164, "latitud": 4.6063969994327154, "longitud_fuente": -74.073989, "latitud_fuente": 4.606397 }, "geometry": { "type": "Point", "coordinates": [ -74.073988999941164, 4.606396999432715 ] } },
{ "type": "Feature", "properties": { "id_registro": 63, "objectid_fuente": 63, "id_camara": "DEI-027/CAM-02", "nombre_camara": "AK 10A - CL 19 (N-S)", "direccion": "AK 10 - CL 19 (N-S)", "numero_acto": "MT. No.: 20204000111021 Marzo 27 de 2020", "velocidad_maxima": 50, "corredor_principal": "Av. Carrera 10", "via_secundaria": "CL 19", "sentido": "(Norte - Sur)", "calzada": "Única", "carriles": 2, "localidad": "Santa Fe", "infraccion": "C.29 - D.04 - C.35 - D.02", "longitud": -74.07374000041915, "latitud": 4.6073450000967879, "longitud_fuente": -74.07374, "latitud_fuente": 4.607345 }, "geometry": { "type": "Point", "coordinates": [ -74.07374000041915, 4.607345000096788 ] } },
{ "type": "Feature", "properties": { "id_registro": 64, "objectid_fuente": 64, "id_camara": "DEI-028/CAM-01", "nombre_camara": "AK 7 - CL 94 (N-S)", "direccion": "AK 7 - CL 93A (N-S)", "numero_acto": "MT-20194000563451 Noviembre 19 de 2019", "velocidad_maxima": 60, "corredor_principal": "Av. Carrera 7", "via_secundaria": "CL 94", "sentido": "(Norte - Sur)", "calzada": "Única", "carriles": 3, "localidad": "Chapinero", "infraccion": "C.29 - C.14 - C.35 - D.02", "longitud": -74.042353000037608, "latitud": 4.6738829994890674, "longitud_fuente": -74.042353, "latitud_fuente": 4.673883 }, "geometry": { "type": "Point", "coordinates": [ -74.042353000037608, 4.673882999489067 ] } },
{ "type": "Feature", "properties": { "id_registro": 65, "objectid_fuente": 65, "id_camara": "DEI-028/CAM-02", "nombre_camara": "AK 7 - CL 94 (S-N)", "direccion": "AK 7 - CL 93A (S-N)", "numero_acto": "MT-20194000563451 Noviembre 19 de 2019", "velocidad_maxima": 60, "corredor_principal": "Av. Carrera 7", "via_secundaria": "CL 94", "sentido": "(Sur - Norte)", "calzada": "Única", "carriles": 3, "localidad": "Chapinero", "infraccion": "C.29 - C.14 - C.35 - D.02", "longitud": -74.042308999656683, "latitud": 4.673841999730179, "longitud_fuente": -74.042309, "latitud_fuente": 4.673842 }, "geometry": { "type": "Point", "coordinates": [ -74.042308999656683, 4.673841999730179 ] } },
{ "type": "Feature", "properties": { "id_registro": 66, "objectid_fuente": 66, "id_camara": "DEI-029/CAM-01", "nombre_camara": "AUTONORTE - CL 116 (N-S) C. LEN", "direccion": "AUTP. NORTE - CL 108 (N-S)", "numero_acto": "MT. No.: 20204000111021 Marzo 27 de 2020", "velocidad_maxima": 60, "corredor_principal": "Autopista Norte", "via_secundaria": "CL 116", "sentido": "(Norte - Sur)", "calzada": "Lenta", "carriles": 2, "localidad": "Suba", "infraccion": "C.29 - C.35 - D.02", "longitud": -74.055795000080352, "latitud": 4.6965909994301587, "longitud_fuente": -74.055795, "latitud_fuente": 4.696591 }, "geometry": { "type": "Point", "coordinates": [ -74.055795000080352, 4.696590999430159 ] } },
{ "type": "Feature", "properties": { "id_registro": 67, "objectid_fuente": 67, "id_camara": "DEI-029/CAM-02", "nombre_camara": "AUTONORTE - CL 116 (N-S) C. RAP", "direccion": "AUTP. NORTE - CL 108 (N-S)", "numero_acto": "MT. No.: 20204000111021 Marzo 27 de 2020", "velocidad_maxima": 60, "corredor_principal": "Autopista Norte", "via_secundaria": "CL 116", "sentido": "(Norte - Sur)", "calzada": "Rápida", "carriles": 3, "localidad": "Suba", "infraccion": "C.29 - C.35 - D.02", "longitud": -74.055696000346146, "latitud": 4.696582999933768, "longitud_fuente": -74.055696, "latitud_fuente": 4.696583 }, "geometry": { "type": "Point", "coordinates": [ -74.055696000346146, 4.696582999933768 ] } },
{ "type": "Feature", "properties": { "id_registro": 68, "objectid_fuente": 68, "id_camara": "DEI-029/CAM-03", "nombre_camara": "AUTONORTE - CL 116 (S-N) C. RAP", "direccion": "AUTP. NORTE - CL 109 (S-N)", "numero_acto": "MT. No.: 20204000111021 Marzo 27 de 2020", "velocidad_maxima": 60, "corredor_principal": "Autopista Norte", "via_secundaria": "CL 116", "sentido": "(Sur - Norte)", "calzada": "Rápida", "carriles": 3, "localidad": "Usaquén", "infraccion": "C.29 - C.35 - D.02", "longitud": -74.055278999696313, "latitud": 4.6969979995396143, "longitud_fuente": -74.055279, "latitud_fuente": 4.696998 }, "geometry": { "type": "Point", "coordinates": [ -74.055278999696313, 4.696997999539614 ] } },
{ "type": "Feature", "properties": { "id_registro": 69, "objectid_fuente": 69, "id_camara": "DEI-029/CAM-04", "nombre_camara": "AUTONORTE - CL 116 (S-N) C. LEN", "direccion": "AUTP. NORTE - CL 109 (S-N)", "numero_acto": "MT. No.: 20204000111021 Marzo 27 de 2020", "velocidad_maxima": 60, "corredor_principal": "Autopista Norte", "via_secundaria": "CL 116", "sentido": "(Sur - Norte)", "calzada": "Lenta", "carriles": 2, "localidad": "Usaquén", "infraccion": "C.29 - C.35 - D.02", "longitud": -74.055119999687662, "latitud": 4.6969699999752459, "longitud_fuente": -74.05512, "latitud_fuente": 4.69697 }, "geometry": { "type": "Point", "coordinates": [ -74.055119999687662, 4.696969999975246 ] } },
{ "type": "Feature", "properties": { "id_registro": 70, "objectid_fuente": 70, "id_camara": "DEI-030/CAM-01", "nombre_camara": "AV BOYACA - CL 169B (N-S)", "direccion": "AV BOYACÁ - CL 168 (N-S)", "numero_acto": "MT. No.: 20204000111021 Marzo 27 de 2020", "velocidad_maxima": 50, "corredor_principal": "Av. Boyacá", "via_secundaria": "CL 169 B", "sentido": "(Norte - Sur)", "calzada": "Única", "carriles": 5, "localidad": "Suba", "infraccion": "C.29 - C.35 - D.02", "longitud": -74.065368000211834, "latitud": 4.7529919997644514, "longitud_fuente": -74.065368, "latitud_fuente": 4.752992 }, "geometry": { "type": "Point", "coordinates": [ -74.065368000211834, 4.752991999764451 ] } },
{ "type": "Feature", "properties": { "id_registro": 71, "objectid_fuente": 71, "id_camara": "DEI-030/CAM-02", "nombre_camara": "AV BOYACA - CL 169B (S-N)", "direccion": "AV BOYACÁ - CL 167 (S-N)", "numero_acto": "MT. No.: 20204000111021 Marzo 27 de 2020", "velocidad_maxima": 50, "corredor_principal": "Av. Boyacá", "via_secundaria": "CL 169 B", "sentido": "(Sur - Norte)", "calzada": "Única", "carriles": 5, "localidad": "Suba", "infraccion": "C.29 - C.35 - D.02", "longitud": -74.065276999975225, "latitud": 4.7529969996024004, "longitud_fuente": -74.065277, "latitud_fuente": 4.752997 }, "geometry": { "type": "Point", "coordinates": [ -74.065276999975225, 4.7529969996024 ] } },
{ "type": "Feature", "properties": { "id_registro": 72, "objectid_fuente": 72, "id_camara": "DEI-031/CAM-01", "nombre_camara": "AV CIUDAD DE CALI - CL 53 SUR (N-S)", "direccion": "AV CIUDAD DE CALI - CL 52 SUR (N-S)", "numero_acto": "MT. No.: 20204000111021 Marzo 27 de 2020", "velocidad_maxima": 50, "corredor_principal": "Av. Ciudad de Cali", "via_secundaria": "CL 53 Sur", "sentido": "(Norte - Sur)", "calzada": "Única", "carriles": 3, "localidad": "Bosa", "infraccion": "D.04 - C.35 - D.02", "longitud": -74.178725000051443, "latitud": 4.6245760000368783, "longitud_fuente": -74.178725, "latitud_fuente": 4.624576 }, "geometry": { "type": "Point", "coordinates": [ -74.178725000051443, 4.624576000036878 ] } },
{ "type": "Feature", "properties": { "id_registro": 73, "objectid_fuente": 73, "id_camara": "DEI-031/CAM-02", "nombre_camara": "AV CIUDAD DE CALI - CL 53 SUR (S-N)", "direccion": "AV CIUDAD DE CALI - CL 53 SUR (S-N)", "numero_acto": "MT. No.: 20204000111021 Marzo 27 de 2020", "velocidad_maxima": 50, "corredor_principal": "Av. Ciudad de Cali", "via_secundaria": "CL 53 Sur", "sentido": "(Sur - Norte)", "calzada": "Única", "carriles": 3, "localidad": "Bosa", "infraccion": "D.04 - C.35 - D.02", "longitud": -74.179131999757232, "latitud": 4.6239029998786521, "longitud_fuente": -74.179132, "latitud_fuente": 4.623903 }, "geometry": { "type": "Point", "coordinates": [ -74.179131999757232, 4.623902999878652 ] } },
{ "type": "Feature", "properties": { "id_registro": 74, "objectid_fuente": 74, "id_camara": "DEI-032/CAM-01", "nombre_camara": "AV SUBA - AV CIUDAD DE CALI (S-N)", "direccion": "AV CIUDAD DE CALI - AV SUBA (S-N)", "numero_acto": "MT. No.: 20204000111021 Marzo 27 de 2020", "velocidad_maxima": 50, "corredor_principal": "Av. Ciudad de Cali", "via_secundaria": "Av. Suba", "sentido": "(Sur - Norte)", "calzada": "Única", "carriles": 3, "localidad": "Suba", "infraccion": "C.29 - D.04 - C.35 - D.02", "longitud": -74.096500000325236, "latitud": 4.7460559998498848, "longitud_fuente": -74.0965, "latitud_fuente": 4.746056 }, "geometry": { "type": "Point", "coordinates": [ -74.096500000325236, 4.746055999849885 ] } },
{ "type": "Feature", "properties": { "id_registro": 75, "objectid_fuente": 75, "id_camara": "DEI-032/CAM-02", "nombre_camara": "AV SUBA - AV CIUDAD DE CALI (N-S)", "direccion": "AV CIUDAD DE CALI - AV SUBA (N-S)", "numero_acto": "MT. No.: 20204000111021 Marzo 27 de 2020", "velocidad_maxima": 50, "corredor_principal": "Av. Ciudad de Cali", "via_secundaria": "Av. Suba", "sentido": "(Norte - Sur)", "calzada": "Única", "carriles": 3, "localidad": "Suba", "infraccion": "C.29 - D.04 - C.35 - D.02", "longitud": -74.096010999705385, "latitud": 4.7470100002517492, "longitud_fuente": -74.096011, "latitud_fuente": 4.74701 }, "geometry": { "type": "Point", "coordinates": [ -74.096010999705385, 4.747010000251749 ] } },
{ "type": "Feature", "properties": { "id_registro": 76, "objectid_fuente": 76, "id_camara": "DEI-033/CAM-01", "nombre_camara": "AC 80 - KR 114 (O-E)", "direccion": "AC 80 - KR 114 (O-E)", "numero_acto": "MT. No.: 20204000111021 Marzo 27 de 2020", "velocidad_maxima": 50, "corredor_principal": "Av. Calle 80", "via_secundaria": "KR 114", "sentido": "(Occidente - Oriente)", "calzada": "Rápida", "carriles": 2, "localidad": "Engativá", "infraccion": "C.29 - C.35 - D.02", "longitud": -74.122138000280685, "latitud": 4.7227239994805448, "longitud_fuente": -74.122138, "latitud_fuente": 4.722724 }, "geometry": { "type": "Point", "coordinates": [ -74.122138000280685, 4.722723999480545 ] } },
{ "type": "Feature", "properties": { "id_registro": 77, "objectid_fuente": 77, "id_camara": "DEI-033/CAM-02", "nombre_camara": "AC 80 - KR 114 (E-O)", "direccion": "AC 80 - KR 114 (E-O)", "numero_acto": "MT. No.: 20204000111021 Marzo 27 de 2020", "velocidad_maxima": 50, "corredor_principal": "Av. Calle 80", "via_secundaria": "KR 114", "sentido": "(Oriente - Occidente)", "calzada": "Rápida", "carriles": 2, "localidad": "Engativá", "infraccion": "C.29 - C.35 - D.02", "longitud": -74.122144000128486, "latitud": 4.7230639996846451, "longitud_fuente": -74.122144, "latitud_fuente": 4.723064 }, "geometry": { "type": "Point", "coordinates": [ -74.122144000128486, 4.723063999684645 ] } },
{ "type": "Feature", "properties": { "id_registro": 78, "objectid_fuente": 78, "id_camara": "DEI-034/CAM-01", "nombre_camara": "CL 116 - KR 9 (N-S)", "direccion": "AK 9 - CL 113 (N-S)", "numero_acto": "MT. No.: 20204000111021 Marzo 27 de 2020", "velocidad_maxima": 60, "corredor_principal": "Av. Carrera 9", "via_secundaria": "KR 9", "sentido": "(Norte - Sur)", "calzada": "Única", "carriles": 3, "localidad": "Usaquén", "infraccion": "C.29 - C.35 - D.02", "longitud": -74.035218999564378, "latitud": 4.6931240001464651, "longitud_fuente": -74.035219, "latitud_fuente": 4.693124 }, "geometry": { "type": "Point", "coordinates": [ -74.035218999564378, 4.693124000146465 ] } },
{ "type": "Feature", "properties": { "id_registro": 79, "objectid_fuente": 79, "id_camara": "DEI-034/CAM-02", "nombre_camara": "CL 116 - KR 9 (S-N)", "direccion": "AK 9 - CL 113 (S-N)", "numero_acto": "MT. No.: 20204000111021 Marzo 27 de 2020", "velocidad_maxima": 60, "corredor_principal": "Av. Carrera 9", "via_secundaria": "KR 9", "sentido": "(Sur - Norte)", "calzada": "Única", "carriles": 3, "localidad": "Usaquén", "infraccion": "C.29 - C.35 - D.02", "longitud": -74.035246000226863, "latitud": 4.6924320000901121, "longitud_fuente": -74.035246, "latitud_fuente": 4.692432 }, "geometry": { "type": "Point", "coordinates": [ -74.035246000226863, 4.692432000090112 ] } },
{ "type": "Feature", "properties": { "id_registro": 80, "objectid_fuente": 80, "id_camara": "DEI-035/CAM-01", "nombre_camara": "AK 68 - AC 80 (S-N) C. RAP", "direccion": "AK 68 - CL 87 (N-S)", "numero_acto": "MT. No.: 20204000111021 Marzo 27 de 2020", "velocidad_maxima": 50, "corredor_principal": "Av. Carrera 68", "via_secundaria": "AC 80", "sentido": "(Sur - Norte)", "calzada": "Rápida", "carriles": 2, "localidad": "Engativá", "infraccion": "C.29 - C.35 - D.02", "longitud": -74.077759000118235, "latitud": 4.68499099946981, "longitud_fuente": -74.077759, "latitud_fuente": 4.684991 }, "geometry": { "type": "Point", "coordinates": [ -74.077759000118235, 4.68499099946981 ] } },
{ "type": "Feature", "properties": { "id_registro": 81, "objectid_fuente": 81, "id_camara": "DEI-035/CAM-02", "nombre_camara": "AK 68 - AC 80 (N-S) C. RAP", "direccion": "AK 68 - CL 87 (S-N)", "numero_acto": "MT. No.: 20204000111021 Marzo 27 de 2020", "velocidad_maxima": 50, "corredor_principal": "Av. Carrera 68", "via_secundaria": "AC 80", "sentido": "(Norte - Sur)", "calzada": "Rápida", "carriles": 2, "localidad": "Engativá", "infraccion": "C.29 - C.35 - D.02", "longitud": -74.07770800006459, "latitud": 4.6850519998855962, "longitud_fuente": -74.077708, "latitud_fuente": 4.685052 }, "geometry": { "type": "Point", "coordinates": [ -74.07770800006459, 4.685051999885596 ] } },
{ "type": "Feature", "properties": { "id_registro": 82, "objectid_fuente": 82, "id_camara": "DEI-036/CAM-01", "nombre_camara": "AUTONORTE - CL 127 (N-S) C. LEN", "direccion": "AUTP. NORTE - CL 127B (N-S)", "numero_acto": "MT. No.: 20204000111021 Marzo 27 de 2020", "velocidad_maxima": 60, "corredor_principal": "Autopista Norte", "via_secundaria": "CL 127", "sentido": "(Norte - Sur)", "calzada": "Lenta", "carriles": 2, "localidad": "Suba", "infraccion": "C.29 - C.35 - D.02", "longitud": -74.053690000332949, "latitud": 4.709979999810975, "longitud_fuente": -74.05369, "latitud_fuente": 4.70998 }, "geometry": { "type": "Point", "coordinates": [ -74.053690000332949, 4.709979999810975 ] } },
{ "type": "Feature", "properties": { "id_registro": 83, "objectid_fuente": 83, "id_camara": "DEI-036/CAM-02", "nombre_camara": "AUTONORTE - CL 127 (N-S) C. RAP", "direccion": "AUTP. NORTE - CL 127B (N-S)", "numero_acto": "MT. No.: 20204000111021 Marzo 27 de 2020", "velocidad_maxima": 60, "corredor_principal": "Autopista Norte", "via_secundaria": "CL 127", "sentido": "(Norte - Sur)", "calzada": "Rápida", "carriles": 3, "localidad": "Suba", "infraccion": "C.29 - C.35 - D.02", "longitud": -74.053493999616052, "latitud": 4.7099590000816196, "longitud_fuente": -74.053494, "latitud_fuente": 4.709959 }, "geometry": { "type": "Point", "coordinates": [ -74.053493999616052, 4.70995900008162 ] } },
{ "type": "Feature", "properties": { "id_registro": 84, "objectid_fuente": 84, "id_camara": "DEI-036/CAM-03", "nombre_camara": "AUTONORTE - CL 127 (S-N) C. RAP", "direccion": "AUTP. NORTE - CL 127 (S-N)", "numero_acto": "MT. No.: 20204000111021 Marzo 27 de 2020", "velocidad_maxima": 60, "corredor_principal": "Autopista Norte", "via_secundaria": "CL 127", "sentido": "(Sur - Norte)", "calzada": "Rápida", "carriles": 3, "localidad": "Usaquén", "infraccion": "C.29 - C.35 - D.02", "longitud": -74.05326799966025, "latitud": 4.7093739994368828, "longitud_fuente": -74.053268, "latitud_fuente": 4.709374 }, "geometry": { "type": "Point", "coordinates": [ -74.05326799966025, 4.709373999436883 ] } },
{ "type": "Feature", "properties": { "id_registro": 85, "objectid_fuente": 85, "id_camara": "DEI-036/CAM-04", "nombre_camara": "AUTONORTE - CL 127 (S-N) C. LEN", "direccion": "AUTP. NORTE - CL 127 (S-N)", "numero_acto": "MT. No.: 20204000111021 Marzo 27 de 2020", "velocidad_maxima": 60, "corredor_principal": "Autopista Norte", "via_secundaria": "CL 127", "sentido": "(Sur - Norte)", "calzada": "Lenta", "carriles": 3, "localidad": "Usaquén", "infraccion": "C.29 - C.35 - D.02", "longitud": -74.053075000214719, "latitud": 4.7093569998117486, "longitud_fuente": -74.053075, "latitud_fuente": 4.709357 }, "geometry": { "type": "Point", "coordinates": [ -74.053075000214719, 4.709356999811749 ] } },
{ "type": "Feature", "properties": { "id_registro": 86, "objectid_fuente": 86, "id_camara": "DEI-037/CAM-01", "nombre_camara": "AV CIUDAD DE CALI - AV VILLAVICENCIO (S-N)", "direccion": "AV CIUDAD DE CALI - CL 43 SUR (N-S)", "numero_acto": "MT. No.: 20204000111021 Marzo 27 de 2020", "velocidad_maxima": 50, "corredor_principal": "Av. Ciudad de Cali", "via_secundaria": "Av. Villavicencio", "sentido": "(Norte - Sur)", "calzada": "Única", "carriles": 3, "localidad": "Kennedy", "infraccion": "C.29 - C.35 - D.02", "longitud": -74.172450999918837, "latitud": 4.6275210002407121, "longitud_fuente": -74.172451, "latitud_fuente": 4.627521 }, "geometry": { "type": "Point", "coordinates": [ -74.172450999918837, 4.627521000240712 ] } },
{ "type": "Feature", "properties": { "id_registro": 87, "objectid_fuente": 87, "id_camara": "DEI-037/CAM-02", "nombre_camara": "AV CIUDAD DE CALI - AV VILLAVICENCIO (N-S)", "direccion": "AV CIUDAD DE CALI - CL 43 SUR (S-N)", "numero_acto": "MT. No.: 20204000111021 Marzo 27 de 2020", "velocidad_maxima": 50, "corredor_principal": "Av. Ciudad de Cali", "via_secundaria": "Av. Villavicencio", "sentido": "(Sur - Norte)", "calzada": "Única", "carriles": 3, "localidad": "Kennedy", "infraccion": "C.29 - C.35 - D.02", "longitud": -74.172071999802142, "latitud": 4.6279319997635868, "longitud_fuente": -74.172072, "latitud_fuente": 4.627932 }, "geometry": { "type": "Point", "coordinates": [ -74.172071999802142, 4.627931999763587 ] } },
{ "type": "Feature", "properties": { "id_registro": 88, "objectid_fuente": 88, "id_camara": "DEI-038/CAM-01", "nombre_camara": "AUTP. SUR - CL 59 SUR (O-E)", "direccion": "AUTP. SUR - KR 75D (O-E)", "numero_acto": "MT. No.: 20204000111021 Marzo 27 de 2020", "velocidad_maxima": 60, "corredor_principal": "Autopista Sur", "via_secundaria": "CL 59 Sur", "sentido": "(Occidente - Oriente)", "calzada": "Única", "carriles": 3, "localidad": "Ciudad Bolívar", "infraccion": "C.29 - C.35 - D.02", "longitud": -74.175914999774136, "latitud": 4.5965820000560713, "longitud_fuente": -74.175915, "latitud_fuente": 4.596582 }, "geometry": { "type": "Point", "coordinates": [ -74.175914999774136, 4.596582000056071 ] } },
{ "type": "Feature", "properties": { "id_registro": 89, "objectid_fuente": 89, "id_camara": "DEI-038/CAM-02", "nombre_camara": "AUTP. SUR - CL 59 SUR (E-O)", "direccion": "AUTP. SUR - KR 75A (E-O)", "numero_acto": "MT. No.: 20204000111021 Marzo 27 de 2020", "velocidad_maxima": 60, "corredor_principal": "Autopista Sur", "via_secundaria": "CL 59 Sur", "sentido": "(Oriente - Occidente)", "calzada": "Única", "carriles": 3, "localidad": "Bosa", "infraccion": "C.29 - C.35 - D.02", "longitud": -74.174820000155179, "latitud": 4.5968339997500172, "longitud_fuente": -74.17482, "latitud_fuente": 4.596834 }, "geometry": { "type": "Point", "coordinates": [ -74.174820000155179, 4.596833999750017 ] } },
{ "type": "Feature", "properties": { "id_registro": 90, "objectid_fuente": 90, "id_camara": "DEI-039/CAM-01", "nombre_camara": "AV AMÉRICAS - KR 70B (O-E)", "direccion": "AV AMÉRICAS - KR 70B (O-E)", "numero_acto": "MT. No.: 20204000111021 Marzo 27 de 2020", "velocidad_maxima": 50, "corredor_principal": "Av. Américas", "via_secundaria": "KR 70 B", "sentido": "(Occidente - Oriente)", "calzada": "Única", "carriles": 5, "localidad": "Kennedy", "infraccion": "C.29 - C.14 - C.35 - D.02", "longitud": -74.133246000247169, "latitud": 4.62978999946895, "longitud_fuente": -74.133246, "latitud_fuente": 4.62979 }, "geometry": { "type": "Point", "coordinates": [ -74.133246000247169, 4.62978999946895 ] } },
{ "type": "Feature", "properties": { "id_registro": 91, "objectid_fuente": 91, "id_camara": "DEI-039/CAM-02", "nombre_camara": "AV AMÉRICAS - KR 70B (E-O)", "direccion": "AV AMÉRICAS - KR 71 (E-O)", "numero_acto": "MT. No.: 20204000111021 Marzo 27 de 2020", "velocidad_maxima": 50, "corredor_principal": "Av. Américas", "via_secundaria": "KR 70 B", "sentido": "(Oriente - Occidente)", "calzada": "Única", "carriles": 5, "localidad": "Kennedy", "infraccion": "C.29 - C.14 - C.35 - D.02", "longitud": -74.133241000224302, "latitud": 4.6301669999578463, "longitud_fuente": -74.133241, "latitud_fuente": 4.630167 }, "geometry": { "type": "Point", "coordinates": [ -74.133241000224302, 4.630166999957846 ] } },
{ "type": "Feature", "properties": { "id_registro": 92, "objectid_fuente": 92, "id_camara": "DEI-040/CAM-01", "nombre_camara": "CL 63 SUR - KR 98A (E-O)", "direccion": "CL 63 SUR - KR 97B (E-O)", "numero_acto": "MT. No.: 20204000111021 Marzo 27 de 2020", "velocidad_maxima": 30, "corredor_principal": "Calle 63 Sur", "via_secundaria": "KR 98 A", "sentido": "(Oriente - Occidente)", "calzada": "Única", "carriles": 3, "localidad": "Bosa", "infraccion": "C.29 - C.35 - D.02", "longitud": -74.198416000112445, "latitud": 4.6338619995422112, "longitud_fuente": -74.198416, "latitud_fuente": 4.633862 }, "geometry": { "type": "Point", "coordinates": [ -74.198416000112445, 4.633861999542211 ] } }
]
}
